[
  { 
    "name" : "NOAA 15",
    "tle_line_1" : "1 25338U 98030A   22117.48389900  .00000200  00000+0  10172-3 0  9990",
    "tle_line_2" : "2 25338  98.6491 147.6741 0011581  87.5349 272.7156 14.26114197246000" 
  },
  { 
    "name" : "DMSP 5D-3 F15 (USA 147)",
    "tle_line_1" : "1 25991U 99067A   22116.91128248  .00000184  00000+0  11551-3 0  9992",
    "tle_line_2" : "2 25991  99.0512 107.6118 0009817 341.3891  74.9042 14.16525256156478" 
  },
  { 
    "name" : "METEOSAT-8 (MSG-1)",
    "tle_line_1" : "1 27509U 02040B   22115.98841309  .00000123  00000+0  00000+0 0  9996",
    "tle_line_2" : "2 27509   7.9442  50.9303 0001900 333.1102 227.4112  1.00280107 72089" 
  },
  { 
    "name" : "DMSP 5D-3 F16 (USA 172)",
    "tle_line_1" : "1 28054U 03048A   22117.50422255  .00000094  00000+0  73658-4 0  9997",
    "tle_line_2" : "2 28054  98.9867 108.0577 0008454  99.8248  10.2296 14.13667222955820" 
  },
  { 
    "name" : "NOAA 18",
    "tle_line_1" : "1 28654U 05018A   22117.42528553  .00000187  00000+0  12480-3 0  9999",
    "tle_line_2" : "2 28654  98.9515 187.8964 0015344 114.9224 245.3544 14.12718734872863" 
  },
  { 
    "name" : "METEOSAT-9 (MSG-2)",
    "tle_line_1" : "1 28912U 05049B   22116.06097858  .00000117  00000+0  00000+0 0  9992",
    "tle_line_2" : "2 28912   5.9053  66.6195 0000344 323.1075 251.7443  1.00268782 59869" 
  },
  { 
    "name" : "EWS-G1 (GOES 13)",
    "tle_line_1" : "1 29155U 06018A   22117.19632963  .00000023  00000+0  00000+0 0  9992",
    "tle_line_2" : "2 29155   0.4704  96.6847 0001260 109.7032 141.0814  1.00274019 58343" 
  },
  { 
    "name" : "DMSP 5D-3 F17 (USA 191)",
    "tle_line_1" : "1 29522U 06050A   22117.48692331  .00000117  00000+0  84112-4 0  9998",
    "tle_line_2" : "2 29522  98.7700 133.4898 0010782  51.3709 308.8427 14.14092670798709" 
  },
  { 
    "name" : "FENGYUN 3A",
    "tle_line_1" : "1 32958U 08026A   22117.47730710  .00000128  00000+0  81689-4 0  9991",
    "tle_line_2" : "2 32958  98.4980  82.2058 0008954 163.3130 196.8343 14.18707391721101" 
  },
  { 
    "name" : "FENGYUN 2E",
    "tle_line_1" : "1 33463U 08066A   22116.93028576 -.00000215  00000+0  00000+0 0  9998",
    "tle_line_2" : "2 33463   5.7926  65.5855 0004208   2.8176 208.0410  1.00276075 48928" 
  },
  { 
    "name" : "NOAA 19",
    "tle_line_1" : "1 33591U 09005A   22117.49155222  .00000177  00000+0  12106-3 0  9995",
    "tle_line_2" : "2 33591  99.1533 150.5450 0013338 334.9761  25.0762 14.12554330681256" 
  },
  { 
    "name" : "GOES 14",
    "tle_line_1" : "1 35491U 09033A   22117.42495062 -.00000105  00000+0  00000+0 0  9997",
    "tle_line_2" : "2 35491   0.2008  93.0037 0011403 125.6974  45.1667  1.00271579 46998" 
  },
  { 
    "name" : "METEOR-M 1",
    "tle_line_1" : "1 35865U 09049A   22117.46479740  .00000126  00000+0  75750-4 0  9999",
    "tle_line_2" : "2 35865  98.5240  89.5928 0002882  37.9819 322.1562 14.22324193654440" 
  },
  { 
    "name" : "DMSP 5D-3 F18 (USA 210)",
    "tle_line_1" : "1 35951U 09057A   22117.50937006  .00000274  00000+0  16849-3 0  9990",
    "tle_line_2" : "2 35951  98.7193  98.1615 0010079 228.4531 131.5779 14.13481984645915" 
  },
  { 
    "name" : "GOES 15",
    "tle_line_1" : "1 36411U 10008A   22117.43748387  .00000042  00000+0  00000+0 0  9995",
    "tle_line_2" : "2 36411   0.1735 104.6094 0002351 340.9127 159.1322  1.00277121 44501" 
  },
  { 
    "name" : "COMS 1",
    "tle_line_1" : "1 36744U 10032A   22116.86679097 -.00000358  00000+0  00000+0 0  9999",
    "tle_line_2" : "2 36744   0.9332  93.5894 0000905 321.4949 239.9442  1.00271338 35924" 
  },
  { 
    "name" : "FENGYUN 3B",
    "tle_line_1" : "1 37214U 10059A   22117.20102794 -.00000020  00000+0  13866-4 0  9990",
    "tle_line_2" : "2 37214  99.0934 122.2633 0022824 137.5261 222.7687 14.14250474593716" 
  },
  { 
    "name" : "SUOMI NPP",
    "tle_line_1" : "1 37849U 11061A   22117.46009044  .00000084  00000+0  60385-4 0  9997",
    "tle_line_2" : "2 37849  98.7295  56.7266 0001331  91.6532  15.8295 14.19559461543950" 
  },
  { 
    "name" : "FENGYUN 2F",
    "tle_line_1" : "1 38049U 12002A   22116.86356390 -.00000369  00000+0  00000+0 0  9998",
    "tle_line_2" : "2 38049   3.6683  80.0558 0003474   9.6948 188.0536  1.00279535 37713" 
  },
  { 
    "name" : "METEOSAT-10 (MSG-3)",
    "tle_line_1" : "1 38552U 12035B   22116.84306764  .00000046  00000+0  00000+0 0  9992",
    "tle_line_2" : "2 38552   1.4528  37.8616 0001165 253.3306 236.2838  1.00271428 35691" 
  },
  { 
    "name" : "METOP-B",
    "tle_line_1" : "1 38771U 12049A   22117.45445786  .00000107  00000+0  69101-4 0  9996",
    "tle_line_2" : "2 38771  98.7001 177.9502 0001284 139.2712 283.0349 14.21496821498484" 
  },
  { 
    "name" : "FENGYUN 3C",
    "tle_line_1" : "1 39260U 13052A   22117.17921519  .00000060  00000+0  51423-4 0  9993",
    "tle_line_2" : "2 39260  98.4597 147.8767 0012318  65.0505 295.1952 14.15914675444660" 
  },
  { 
    "name" : "METEOR-M 2",
    "tle_line_1" : "1 40069U 14037A   22117.47465175  .00000003  00000+0  20369-4 0  9992",
    "tle_line_2" : "2 40069  98.4359 137.5964 0006961 105.8204 254.3750 14.20704124404623" 
  },
  { 
    "name" : "HIMAWARI-8",
    "tle_line_1" : "1 40267U 14060A   22116.86932031 -.00000290  00000+0  00000+0 0  9994",
    "tle_line_2" : "2 40267   0.0509  90.0380 0000492 311.3503 267.0562  1.00272752 27593" 
  },
  { 
    "name" : "FENGYUN 2G",
    "tle_line_1" : "1 40367U 14090A   22116.89076951 -.00000311  00000+0  00000+0 0  9995",
    "tle_line_2" : "2 40367   1.8074  89.8774 0003100 350.1022 194.8342  1.00260456 26836" 
  },
  { 
    "name" : "METEOSAT-11 (MSG-4)",
    "tle_line_1" : "1 40732U 15034A   22116.84123606 -.00000021  00000+0  00000+0 0  9993",
    "tle_line_2" : "2 40732   0.2097  32.0808 0000945  51.7401  73.5788  1.00268267 24863" 
  },
  { 
    "name" : "ELEKTRO-L 2",
    "tle_line_1" : "1 41105U 15074A   22117.25716293 -.00000126  00000+0  00000+0 0  9994",
    "tle_line_2" : "2 41105   2.8593  88.6772 0001222  19.5781 185.0941  1.00270375 23352" 
  },
  { 
    "name" : "HIMAWARI-9",
    "tle_line_1" : "1 41836U 16064A   22116.94110083 -.00000289  00000+0  00000+0 0  9995",
    "tle_line_2" : "2 41836   0.0043 151.5143 0001895 311.7564 231.1846  1.00271832 20147" 
  },
  { 
    "name" : "GOES 16",
    "tle_line_1" : "1 41866U 16071A   22116.96979559 -.00000263  00000+0  00000+0 0  9991",
    "tle_line_2" : "2 41866   0.0423 278.3893 0000798 158.6140  51.8530  1.00273271 19943" 
  },
  { 
    "name" : "FENGYUN 4A",
    "tle_line_1" : "1 41882U 16077A   22117.00566153 -.00000344  00000+0  00000+0 0  9993",
    "tle_line_2" : "2 41882   0.1571 287.1925 0005038 200.8275 193.5884  1.00274970 19810" 
  },
  { 
    "name" : "CYGFM05",
    "tle_line_1" : "1 41884U 16078A   22117.41054502  .00003560  00000+0  18225-3 0  9995",
    "tle_line_2" : "2 41884  34.9549 159.6618 0015121 350.8058   9.2376 15.16006374297138" 
  },
  { 
    "name" : "CYGFM04",
    "tle_line_1" : "1 41885U 16078B   22116.49283112  .00003390  00000+0  17123-3 0  9991",
    "tle_line_2" : "2 41885  34.9482 154.8961 0013416 358.7512   1.3164 15.16519548296937" 
  },
  { 
    "name" : "CYGFM02",
    "tle_line_1" : "1 41886U 16078C   22116.55066393  .00003361  00000+0  16967-3 0  9992",
    "tle_line_2" : "2 41886  34.9574 156.7252 0014251 353.4306   6.6218 15.16538717297023" 
  },
  { 
    "name" : "CYGFM01",
    "tle_line_1" : "1 41887U 16078D   22117.53727305  .00003341  00000+0  17226-3 0  9996",
    "tle_line_2" : "2 41887  34.9517 161.1767 0015579 351.3385   8.7056 15.15779966297126" 
  },
  { 
    "name" : "CYGFM08",
    "tle_line_1" : "1 41888U 16078E   22117.20791490  .00003706  00000+0  18842-3 0  9997",
    "tle_line_2" : "2 41888  34.9487 156.1129 0014631 359.7386   0.3316 15.16238718297112" 
  },
  { 
    "name" : "CYGFM06",
    "tle_line_1" : "1 41889U 16078F   22116.79474379  .00003810  00000+0  19206-3 0  9996",
    "tle_line_2" : "2 41889  34.9567 153.8937 0013141 355.0314   5.0266 15.16555344297009" 
  },
  { 
    "name" : "CYGFM07",
    "tle_line_1" : "1 41890U 16078G   22116.77695465  .00003638  00000+0  18371-3 0  9997",
    "tle_line_2" : "2 41890  34.9507 152.8347 0012864 359.3366   0.7327 15.16509083296989" 
  },
  { 
    "name" : "CYGFM03",
    "tle_line_1" : "1 41891U 16078H   22116.77534994  .00003702  00000+0  18696-3 0  9999",
    "tle_line_2" : "2 41891  34.9540 153.3006 0012443 357.0754   2.9883 15.16503253296977" 
  },
  { 
    "name" : "FENGYUN 3D",
    "tle_line_1" : "1 43010U 17072A   22117.45010111  .00000117  00000+0  76845-4 0  9993",
    "tle_line_2" : "2 43010  98.8116  62.3132 0003014  55.4917 304.6534 14.19197087230534" 
  },
  { 
    "name" : "NOAA 20",
    "tle_line_1" : "1 43013U 17073A   22117.54521012  .00000047  00000+0  43379-4 0  9992",
    "tle_line_2" : "2 43013  98.7536  56.9061 0000956 108.3800 251.7480 14.19542207230005" 
  },
  { 
    "name" : "GOES 17",
    "tle_line_1" : "1 43226U 18022A   22116.67037573  .00000083  00000+0  00000+0 0  9999",
    "tle_line_2" : "2 43226   0.0344 279.3624 0000272 103.5629 295.8540  1.00271594 15255" 
  },
  { 
    "name" : "FENGYUN 2H",
    "tle_line_1" : "1 43491U 18050A   22116.85702253 -.00000139  00000+0  00000+0 0  9991",
    "tle_line_2" : "2 43491   1.0191  98.0931 0003959  19.1191 125.1679  1.00268155 14276" 
  },
  { 
    "name" : "METOP-C",
    "tle_line_1" : "1 43689U 18087A   22117.47956290  .00000114  00000+0  71820-4 0  9996",
    "tle_line_2" : "2 43689  98.6882 178.2665 0003084 164.9489 195.1781 14.21500470180065" 
  },
  { 
    "name" : "GEO-KOMPSAT-2A",
    "tle_line_1" : "1 43823U 18100A   22116.86687819 -.00000359  00000+0  00000+0 0  9991",
    "tle_line_2" : "2 43823   0.0542  73.6608 0002124 358.8006 222.6986  1.00269955 12456" 
  },
  { 
    "name" : "METEOR-M2 2",
    "tle_line_1" : "1 44387U 19038A   22117.48092409  .00000039  00000+0  36510-4 0  9996",
    "tle_line_2" : "2 44387  98.7178  78.6821 0002541  70.7042 289.4412 14.23706863146159" 
  },
  { 
    "name" : "FENGYUN 3E",
    "tle_line_1" : "1 49008U 21062A   22117.48844891  .00000001  00000+0  21208-4 0  9998",
    "tle_line_2" : "2 49008  98.7117 120.2526 0002735 114.4587 245.6894 14.19728158 42089" 
  },
  { 
    "name" : "GOES 18",
    "tle_line_1" : "1 51850U 22021A   22116.33203437 -.00000197  00000+0  00000+0 0  9999",
    "tle_line_2" : "2 51850   0.0441  72.7819 0001059  48.3061 123.2438  1.00267507   428" 
  }
]